TOMORROW-S3             
1 62392U 24247R   26068.49782200  .00007664  00000+0  28858-3 0  9991
2 62392  44.9999 117.9871 0000396 320.9462  39.1392 15.27672122 67708
STARLINK-36418          
1 67422U 26005U   26068.51705146  .00025836  00000+0  94444-3 0  9996
2 67422  43.0021 238.6486 0001818 284.6926  75.3724 15.27602228  8679
